ONEWEB-0340             
1 49206U 21083W   26009.24873774  .00000005  00000+0 -21116-4 0  9994
2 49206  87.9182   7.0091 0001844  88.9940 271.1403 13.18685533209024
ONEWEB-0341             
1 49207U 21083X   26009.25533926 -.00000026  00000+0 -99790-4 0  9995
2 49207  87.9179   7.0187 0001544 105.2679 254.8624 13.18684239209043
ONEWEB-0342             
1 49208U 21083Y   26009.26161195  .00000092  00000+0  19483-3 0  9993
2 49208  87.9232 306.1372 0001658  72.7922 287.3392 13.20771284215802
ONEWEB-0343             
1 49209U 21083Z   26009.03595817 -.00000010  00000+0 -57104-4 0  9996
2 49209  87.9181   7.0555 0001238  95.6549 264.4725 13.18685697209065
ONEWEB-0344             
1 49210U 21083AA  26009.21339167 -.00000161  00000+0 -47604-3 0  9992
2 49210  87.8982 351.8538 0001607  97.9498 262.1813 13.13469975210029
ONEWEB-0345             
1 49211U 21083AB  26009.20492233 -.00000239  00000+0 -68821-3 0  9996
2 49211  87.8991 351.8174 0001563  95.7452 264.3855 13.13471020210038
ONEWEB-0346             
1 49212U 21083AC  26009.26028044 -.00000062  00000+0 -18905-3 0  9990
2 49212  87.9174   7.0245 0002369  96.3839 263.7563 13.18683479209038
ONEWEB-0348             
1 49213U 21083AD  26009.25212074  .00000446  00000+0  10637-2 0  9995
2 49213  87.9228 306.1432 0001955  93.0965 267.0392 13.20781880215834
